XRISM                   
1 57800U 23137A   23329.12219418  .00006767  00000+0  54273-3 0  9992
2 57800  31.0034 235.2779 0010345 336.3762  23.6397 14.98705026 11870
